start=new Date('2021-09-12T00:00:00.000Z').valueOf();
sats=[{"OBJECT_TYPE":"PAYLOAD","MEAN_ELEMENT_THEORY":"SGP4","PERIAPSIS":"545.986","TLE_LINE2":"2 47897  53.0565  73.6116 0001775  98.2102 261.9088 15.06399460 29027","RCS_SIZE":"LARGE","RA_OF_ASC_NODE":"73.6116","EPHEMERIS_TYPE":"0","INCLINATION":"53.0565","BSTAR":"0.00006184900000","DECAY_DATE":null,"COUNTRY_CODE":"US","SEMIMAJOR_AXIS":"6925.350","TLE_LINE1":"1 47897U 21021AP  21254.74347203  .00000640  00000-0  61849-4 0  9997","ECCENTRICITY":"0.00017750","FILE":"3113379","MEAN_MOTION_DOT":"0.00000640","LAUNCH_DATE":"2021-03-14","OBJECT_ID":"2021-021AP","EPOCH":"2021-09-11T17:50:35.983392","MEAN_MOTION":"15.06399460","NORAD_CAT_ID":"47897","SITE":"AFETR","APOAPSIS":"548.444","REF_FRAME":"TEME","CENTER_NAME":"EARTH","CLASSIFICATION_TYPE":"U","PERIOD":"95.592","ELEMENT_SET_NO":"999","ARG_OF_PERICENTER":"98.2102","OBJECT_NAME":"STARLINK-2357","REV_AT_EPOCH":"2902","GP_ID":"184534161","TIME_SYSTEM":"UTC","MEAN_MOTION_DDOT":"0.0000000000000","MEAN_ANOMALY":"261.9088"},{"LAUNCH_DATE":"2021-03-14","OBJECT_ID":"2021-021AQ","MEAN_MOTION_DOT":"0.00000896","FILE":"3113379","TLE_LINE1":"1 47898U 21021AQ  21254.73979557  .00000896  00000-0  79055-4 0  9991","SEMIMAJOR_AXIS":"6925.354","ECCENTRICITY":"0.00019640","COUNTRY_CODE":"US","DECAY_DATE":null,"EPHEMERIS_TYPE":"0","INCLINATION":"53.0571","BSTAR":"0.00007905500000","RA_OF_ASC_NODE":"73.6273","RCS_SIZE":"LARGE","PERIAPSIS":"545.859","TLE_LINE2":"2 47898  53.0571  73.6273 0001964  96.4071 263.7142 15.06398245 28967","OBJECT_TYPE":"PAYLOAD","MEAN_ELEMENT_THEORY":"SGP4","MEAN_MOTION_DDOT":"0.0000000000000","GP_ID":"184534411","TIME_SYSTEM":"UTC","MEAN_ANOMALY":"263.7142","REV_AT_EPOCH":"2896","ARG_OF_PERICENTER":"96.4071","OBJECT_NAME":"STARLINK-2358","ELEMENT_SET_NO":"999","CLASSIFICATION_TYPE":"U","PERIOD":"95.592","CENTER_NAME":"EARTH","REF_FRAME":"TEME","APOAPSIS":"548.579","SITE":"AFETR","EPOCH":"2021-09-11T17:45:18.337248","MEAN_MOTION":"15.06398245","NORAD_CAT_ID":"47898"},{"APOAPSIS":"548.507","SITE":"AFETR","NORAD_CAT_ID":"47899","MEAN_MOTION":"15.06404861","EPOCH":"2021-09-11T17:41:18.429504","REF_FRAME":"TEME","CENTER_NAME":"EARTH","PERIOD":"95.592","CLASSIFICATION_TYPE":"U","ELEMENT_SET_NO":"999","REV_AT_EPOCH":"2916","OBJECT_NAME":"STARLINK-2359","ARG_OF_PERICENTER":"114.9689","MEAN_ANOMALY":"245.1497","MEAN_MOTION_DDOT":"0.0000000000000","GP_ID":"184535662","TIME_SYSTEM":"UTC","OBJECT_TYPE":"PAYLOAD","MEAN_ELEMENT_THEORY":"SGP4","TLE_LINE2":"2 47899  53.0563  63.6416 0001889 114.9689 245.1497 15.06404861 29166","PERIAPSIS":"545.890","RA_OF_ASC_NODE":"63.6416","RCS_SIZE":"LARGE","COUNTRY_CODE":"US","DECAY_DATE":null,"BSTAR":"0.00007963900000","EPHEMERIS_TYPE":"0","INCLINATION":"53.0563","FILE":"3113379","TLE_LINE1":"1 47899U 21021AR  21254.73701886  .00000905  00000-0  79639-4 0  9999","SEMIMAJOR_AXIS":"6925.334","ECCENTRICITY":"0.00018890","LAUNCH_DATE":"2021-03-14","OBJECT_ID":"2021-021AR","MEAN_MOTION_DOT":"0.00000905"},{"NORAD_CAT_ID":"47900","MEAN_MOTION":"15.06396716","EPOCH":"2021-09-11T18:15:47.596320","SITE":"AFETR","APOAPSIS":"548.600","REF_FRAME":"TEME","CENTER_NAME":"EARTH","PERIOD":"95.592","CLASSIFICATION_TYPE":"U","ELEMENT_SET_NO":"999","OBJECT_NAME":"STARLINK-2360","ARG_OF_PERICENTER":"113.0925","REV_AT_EPOCH":"2902","MEAN_ANOMALY":"247.0273","GP_ID":"184535413","MEAN_MOTION_DDOT":"0.0000000000000","TIME_SYSTEM":"UTC","OBJECT_TYPE":"PAYLOAD","MEAN_ELEMENT_THEORY":"SGP4","TLE_LINE2":"2 47900  53.0567  73.5333 0001987 113.0925 247.0273 15.06396716 29020","PERIAPSIS":"545.848","RCS_SIZE":"LARGE","RA_OF_ASC_NODE":"73.5333","BSTAR":"0.00011431000000","EPHEMERIS_TYPE":"0","INCLINATION":"53.0567","DECAY_DATE":null,"COUNTRY_CODE":"US","TLE_LINE1":"1 47900U 21021AS  21254.76096755  .00001421  00000-0  11431-3 0  9996","ECCENTRICITY":"0.00019870","SEMIMAJOR_AXIS":"6925.359","FILE":"3113379","MEAN_MOTION_DOT":"0.00001421","LAUNCH_DATE":"2021-03-14","OBJECT_ID":"2021-021AS"},{"REF_FRAME":"TEME","NORAD_CAT_ID":"47901","MEAN_MOTION":"15.06398857","EPOCH":"2021-09-11T17:13:24.826944","SITE":"AFETR","APOAPSIS":"548.584","CENTER_NAME":"EARTH","ELEMENT_SET_NO":"999","PERIOD":"95.592","CLASSIFICATION_TYPE":"U","MEAN_ANOMALY":"246.6378","TIME_SYSTEM":"UTC","GP_ID":"184534661","MEAN_MOTION_DDOT":"0.0000000000000","OBJECT_NAME":"STARLINK-2361","ARG_OF_PERICENTER":"113.4819","REV_AT_EPOCH":"2914","TLE_LINE2":"2 47901  53.0487  63.7557 0001974 113.4819 246.6378 15.06398857 29145","PERIAPSIS":"545.850","OBJECT_TYPE":"PAYLOAD","MEAN_ELEMENT_THEORY":"SGP4","BSTAR":"-0.00000555950000","INCLINATION":"53.0487","EPHEMERIS_TYPE":"0","COUNTRY_CODE":"US","DECAY_DATE":null,"RCS_SIZE":"LARGE","RA_OF_ASC_NODE":"63.7557","TLE_LINE1":"1 47901U 21021AT  21254.71764846 -.00000365  00000-0 -55595-5 0  9994","ECCENTRICITY":"0.00019740","SEMIMAJOR_AXIS":"6925.352","FILE":"3113379","MEAN_MOTION_DOT":"-0.00000365","OBJECT_ID":"2021-021AT","LAUNCH_DATE":"2021-03-14"},{"RCS_SIZE":"LARGE","RA_OF_ASC_NODE":"83.7608","INCLINATION":"53.0547","EPHEMERIS_TYPE":"0","BSTAR":"-0.00004890500000","DECAY_DATE":null,"COUNTRY_CODE":"US","MEAN_ELEMENT_THEORY":"SGP4","OBJECT_TYPE":"PAYLOAD","PERIAPSIS":"545.984","TLE_LINE2":"2 47902  53.0547  83.7608 0001823  87.3321 272.7877 15.06389381 28978","MEAN_MOTION_DOT":"-0.00001010","LAUNCH_DATE":"2021-03-14","OBJECT_ID":"2021-021AU","TLE_LINE1":"1 47902U 21021AU  21254.70939057 -.00001010  00000-0 -48905-4 0  9996","SEMIMAJOR_AXIS":"6925.381","ECCENTRICITY":"0.00018230","FILE":"3113379","CENTER_NAME":"EARTH","MEAN_MOTION":"15.06389381","EPOCH":"2021-09-11T17:01:31.345248","NORAD_CAT_ID":"47902","SITE":"AFETR","APOAPSIS":"548.509","REF_FRAME":"TEME","ARG_OF_PERICENTER":"87.3321","OBJECT_NAME":"STARLINK-2362","REV_AT_EPOCH":"2897","GP_ID":"184534911","TIME_SYSTEM":"UTC","MEAN_MOTION_DDOT":"0.0000000000000","MEAN_ANOMALY":"272.7877","CLASSIFICATION_TYPE":"U","PERIOD":"95.593","ELEMENT_SET_NO":"999"},{"MEAN_MOTION_DOT":"0.00000870","OBJECT_ID":"2021-021AV","LAUNCH_DATE":"2021-03-14","TLE_LINE1":"1 47903U 21021AV  21254.66699570  .00000870  00000-0  77299-4 0  9994","ECCENTRICITY":"0.00018970","SEMIMAJOR_AXIS":"6925.356","FILE":"3113379","EPHEMERIS_TYPE":"0","INCLINATION":"53.0565","BSTAR":"0.00007729900000","COUNTRY_CODE":"US","DECAY_DATE":null,"RCS_SIZE":"LARGE","RA_OF_ASC_NODE":"63.9571","PERIAPSIS":"545.907","TLE_LINE2":"2 47903  53.0565  63.9571 0001897 116.0898 244.0286 15.06397670 29481","MEAN_ELEMENT_THEORY":"SGP4","OBJECT_TYPE":"PAYLOAD","GP_ID":"184535163","TIME_SYSTEM":"UTC","MEAN_MOTION_DDOT":"0.0000000000000","MEAN_ANOMALY":"244.0286","ARG_OF_PERICENTER":"116.0898","OBJECT_NAME":"STARLINK-2363","REV_AT_EPOCH":"2948","ELEMENT_SET_NO":"999","CLASSIFICATION_TYPE":"U","PERIOD":"95.592","CENTER_NAME":"EARTH","REF_FRAME":"TEME","MEAN_MOTION":"15.06397670","EPOCH":"2021-09-11T16:00:28.428480","NORAD_CAT_ID":"47903","SITE":"AFETR","APOAPSIS":"548.534"},{"OBJECT_ID":"2021-021AW","LAUNCH_DATE":"2021-03-14","MEAN_MOTION_DOT":"0.00000695","FILE":"3113379","TLE_LINE1":"1 47904U 21021AW  21254.72965688  .00000695  00000-0  65546-4 0  9995","ECCENTRICITY":"0.00018190","SEMIMAJOR_AXIS":"6925.378","DECAY_DATE":null,"COUNTRY_CODE":"US","EPHEMERIS_TYPE":"0","INCLINATION":"53.0557","BSTAR":"0.00006554600000","RA_OF_ASC_NODE":"63.6729","RCS_SIZE":"LARGE","PERIAPSIS":"545.983","TLE_LINE2":"2 47904  53.0557  63.6729 0001819 108.3611 251.7575 15.06390532 29134","OBJECT_TYPE":"PAYLOAD","MEAN_ELEMENT_THEORY":"SGP4","GP_ID":"184535913","MEAN_MOTION_DDOT":"0.0000000000000","TIME_SYSTEM":"UTC","MEAN_ANOMALY":"251.7575","REV_AT_EPOCH":"2913","ARG_OF_PERICENTER":"108.3611","OBJECT_NAME":"STARLINK-2364","ELEMENT_SET_NO":"999","CLASSIFICATION_TYPE":"U","PERIOD":"95.593","CENTER_NAME":"EARTH","REF_FRAME":"TEME","SITE":"AFETR","APOAPSIS":"548.502","EPOCH":"2021-09-11T17:30:42.354432","MEAN_MOTION":"15.06390532","NORAD_CAT_ID":"47904"},{"RCS_SIZE":"LARGE","RA_OF_ASC_NODE":"63.6909","INCLINATION":"53.0558","EPHEMERIS_TYPE":"0","BSTAR":"-0.00001151800000","DECAY_DATE":null,"COUNTRY_CODE":"US","OBJECT_TYPE":"PAYLOAD","MEAN_ELEMENT_THEORY":"SGP4","PERIAPSIS":"545.840","TLE_LINE2":"2 47905  53.0558  63.6909 0001989 109.5429 250.5775 15.06398822 29267","MEAN_MOTION_DOT":"-0.00000453","LAUNCH_DATE":"2021-03-14","OBJECT_ID":"2021-021AX","TLE_LINE1":"1 47905U 21021AX  21254.72596761 -.00000453  00000-0 -11518-4 0  9992","SEMIMAJOR_AXIS":"6925.352","ECCENTRICITY":"0.00019890","FILE":"3113379","CENTER_NAME":"EARTH","EPOCH":"2021-09-11T17:25:23.601504","MEAN_MOTION":"15.06398822","NORAD_CAT_ID":"47905","SITE":"AFETR","APOAPSIS":"548.595","REF_FRAME":"TEME","ARG_OF_PERICENTER":"109.5429","OBJECT_NAME":"STARLINK-2365","REV_AT_EPOCH":"2926","MEAN_MOTION_DDOT":"0.0000000000000","GP_ID":"184534162","TIME_SYSTEM":"UTC","MEAN_ANOMALY":"250.5775","CLASSIFICATION_TYPE":"U","PERIOD":"95.592","ELEMENT_SET_NO":"999"},{"LAUNCH_DATE":"2021-03-14","OBJECT_ID":"2021-021AY","MEAN_MOTION_DOT":"0.00016505","FILE":"3113379","SEMIMAJOR_AXIS":"6732.820","TLE_LINE1":"1 47906U 21021AY  21254.69741888  .00016505  00000-0  13072-3 0  9990","ECCENTRICITY":"0.00086410","RA_OF_ASC_NODE":"42.5175","RCS_SIZE":"LARGE","DECAY_DATE":null,"COUNTRY_CODE":"US","BSTAR":"0.00013072000000","INCLINATION":"53.0536","EPHEMERIS_TYPE":"0","MEAN_ELEMENT_THEORY":"SGP4","OBJECT_TYPE":"PAYLOAD","TLE_LINE2":"2 47906  53.0536  42.5175 0008641 284.9493  75.0567 15.71474302 29557","PERIAPSIS":"348.867","REV_AT_EPOCH":"2955","OBJECT_NAME":"STARLINK-2366","ARG_OF_PERICENTER":"284.9493","MEAN_ANOMALY":"75.0567","MEAN_MOTION_DDOT":"0.0000000000000","GP_ID":"184534412","TIME_SYSTEM":"UTC","PERIOD":"91.634","CLASSIFICATION_TYPE":"U","ELEMENT_SET_NO":"999","CENTER_NAME":"EARTH","APOAPSIS":"360.503","SITE":"AFETR","NORAD_CAT_ID":"47906","MEAN_MOTION":"15.71474302","EPOCH":"2021-09-11T16:44:16.991232","REF_FRAME":"TEME"}];
